{"type":"FeatureCollection","features":[{"type":"Feature","id":24,"geometry":{"type":"Polygon","coordinates":[[[172.69067125501516,-43.58959950082707],[172.6908388410657,-43.589893939702627],[172.69093530295396,-43.589998468593095],[172.69106633517103,-43.590101470075567],[172.69157861367074,-43.590360552034603],[172.69210899022735,-43.590569617351413],[172.6926227857235,-43.590824376706017],[172.69288098131761,-43.590916102565309],[172.69309881032183,-43.591053100401048],[172.69332347930143,-43.591160672597184],[172.69351931863054,-43.591310396529487],[172.69385282767303,-43.591721789277059],[172.69400211875057,-43.591817002649982],[172.69425549025158,-43.591908532395763],[172.69441185104773,-43.591928849620786],[172.69462519939614,-43.591924377374525],[172.69512171087186,-43.59185267888877],[172.69532308632685,-43.591790366774354],[172.69561843673176,-43.591664465127131],[172.69594810004995,-43.591587996713912],[172.6963501929884,-43.591445629289304],[172.69684107046541,-43.591310519150248],[172.69753262858913,-43.591250492374243],[172.69794875117967,-43.591274102918973],[172.69826161930806,-43.591359658150999],[172.69844883407723,-43.591452894856289],[172.69896258591453,-43.591797847148129],[172.70009193897172,-43.59271239534003],[172.70039471299214,-43.59288696925438],[172.70165819258239,-43.593818600943585],[172.70226342594509,-43.59416062551292],[172.70293901325309,-43.594406215212352],[172.70322815352839,-43.594484581880401],[172.70405876528787,-43.594571824196791],[172.70444421439248,-43.594640892659392],[172.70476054560444,-43.594631715412262],[172.70568450418384,-43.594326426134508],[172.70593437363587,-43.594227033065849],[172.70659233251968,-43.594126346438856],[172.70749991569724,-43.593822170968444],[172.70794857061779,-43.593732466137425],[172.70822511611496,-43.593725968943545],[172.70853644494744,-43.593751074276483],[172.70877116372708,-43.593786248358768],[172.70933746425229,-43.593808669202915],[172.71024315649387,-43.593817271178729],[172.71045801179551,-43.593809711797938],[172.71058522558309,-43.593787523546595],[172.7110199614049,-43.593654191353139],[172.71112535520021,-43.593609346934947],[172.71140269197261,-43.59343707770914],[172.71184799762187,-43.593112791072656],[172.7126806169573,-43.592620468866507],[172.71289296538484,-43.592513852973312],[172.71320979737317,-43.592396603813967],[172.7134370069102,-43.592290654474944],[172.71416221488678,-43.59195139278458],[172.71453426025153,-43.591710020707005],[172.71476594499617,-43.591599757895082],[172.71501785893327,-43.591455329268037],[172.7152964214782,-43.591333927031862],[172.71554817385666,-43.591144386031175],[172.71571919798686,-43.590971931729293],[172.71603113910879,-43.590706364180292],[172.71663045263631,-43.590023715750533],[172.71695870942813,-43.589526058992917],[172.71722672198726,-43.589273975618688],[172.71731394566501,-43.589218005404753],[172.71763941239502,-43.589156050750987],[172.71790813228336,-43.589149420753436],[172.71826918383539,-43.589106911035223],[172.71872410735725,-43.589096595916075],[172.71881341034754,-43.589072594419193],[172.71906664777552,-43.588958864222967],[172.71925376564391,-43.588918354973792],[172.71974922603869,-43.588901382196887],[172.72041056151986,-43.58893685706267],[172.72061730374466,-43.588911700634796],[172.72090896970008,-43.588844881860844],[172.72145204266866,-43.588576351796021],[172.72197666941921,-43.5882774302763],[172.72224821297425,-43.58814068689184],[172.72245664868461,-43.587988842773214],[172.72286205530312,-43.587753377097876],[172.72361327708248,-43.587390527322626],[172.72378677976278,-43.587318823341185],[172.72395199746592,-43.587270960107816],[172.72426145111609,-43.587212549573287],[172.72441051333357,-43.587203094462382],[172.72464672677174,-43.587232927136441],[172.72465935182143,-43.587235118540868],[172.72497145549636,-43.587329062807946],[172.72530825187152,-43.587550204250057],[172.72592135249718,-43.588139737164106],[172.72618599021047,-43.588458578149485],[172.72669212007523,-43.588792672846111],[172.72691880275974,-43.588877223296173],[172.72734336624868,-43.589088033435374],[172.72746283690691,-43.58913108803393],[172.72761661595962,-43.589147932122181],[172.72795977125759,-43.589116784434395],[172.7281164468269,-43.589150652594597],[172.72848808631949,-43.589065996337546],[172.72882192460017,-43.589040496551306],[172.72903183146337,-43.589054770610119],[172.72939198037207,-43.589128917465992],[172.73005388122229,-43.589206027121541],[172.73031547769358,-43.589213127496286],[172.73081465711533,-43.589195395204733],[172.73168237407893,-43.589120989722616],[172.73208066367843,-43.58905934492347],[172.73265052862274,-43.588940113334402],[172.73313720076911,-43.588892717981366],[172.73328879402226,-43.588899824851197],[172.73343509554869,-43.588927088489051],[172.73372493368672,-43.589018795922762],[172.73384358935976,-43.589079129933964],[172.73395345593281,-43.589194368711979],[172.73412777502966,-43.589526577323582],[172.73431202052663,-43.589714742260725],[172.73448059575767,-43.589832638104404],[172.73489554268153,-43.590040516506399],[172.73504079279414,-43.590138818415511],[172.73512332576732,-43.590216805545765],[172.73517157704586,-43.590315602843646],[172.73529096854446,-43.590717734673731],[172.73541639257269,-43.591015702277367],[172.73571408490554,-43.591523684729772],[172.73580354069969,-43.591888829717909],[172.73594938379208,-43.592192876642422],[172.73619644305433,-43.592638342026788],[172.73648527976624,-43.593049777423353],[172.73654939484868,-43.593261702759619],[172.73662609653852,-43.593399913076901],[172.73712570124187,-43.593975077351836],[172.7373795269105,-43.594321149824573],[172.73743346273392,-43.594481817642546],[172.73743517280937,-43.594601396632726],[172.73735913016753,-43.594823624369894],[172.7372905402629,-43.594955827718238],[172.73717844466793,-43.595092703212082],[172.73691381145261,-43.595350063298419],[172.73667946368556,-43.595480353996855],[172.73656671343278,-43.595511158545989],[172.73652019153994,-43.595525638052422],[172.73627932729872,-43.595700933630013],[172.73572476824103,-43.595961673638335],[172.73560019130844,-43.596061781799669],[172.73552879076755,-43.596155619908878],[172.73544841279966,-43.596347312237313],[172.73541083502215,-43.596525777434572],[172.73541386997965,-43.59659655702275],[172.73546247518166,-43.59670066735216],[172.73559764814553,-43.596897270362028],[172.73567238349463,-43.596975779220386],[172.73579770432829,-43.597045851007557],[172.7360367484271,-43.597118436324493],[172.73664840344372,-43.597233389171258],[172.73740514261303,-43.597319318581832],[172.73874369096836,-43.597633928603791],[172.73894294633345,-43.597712179555224],[172.73944143472417,-43.597956428569375],[172.74023567485301,-43.598486508909339],[172.74040809236743,-43.598583605007136],[172.74053758526284,-43.598636303064083],[172.74066011265151,-43.598666564864835],[172.74083769370918,-43.598686686629783],[172.74099565973611,-43.598687134657169],[172.74130303087821,-43.598604092101155],[172.74212651057604,-43.598298731272926],[172.74263605312456,-43.598133753085172],[172.7429611983348,-43.597977902572126],[172.74317103630199,-43.597841691302513],[172.74338232509683,-43.597626246455029],[172.74397292117115,-43.597189789227073],[172.74416170707997,-43.597020843933819],[172.74471052735223,-43.596704584705115],[172.74489698454957,-43.596558143340822],[172.74523901693846,-43.596360544757133],[172.74571158203614,-43.595968025711507],[172.74586658515389,-43.595875987853503],[172.74614404256593,-43.595742352484706],[172.74647582214172,-43.59550600957995],[172.74680408576373,-43.595309816403834],[172.74717840569608,-43.595031606328071],[172.74756437032963,-43.59481203771734],[172.74789944839262,-43.594673302871598],[172.74819446294316,-43.594515930263064],[172.74860453360654,-43.594217895048217],[172.74871980427471,-43.594115231062069],[172.74885636010711,-43.593988302519676],[172.74900767833006,-43.593886257669773],[172.74942940800489,-43.593642630112257],[172.7498133361816,-43.593461947309301],[172.75027306908143,-43.593193998535853],[172.75088034119088,-43.592746646667074],[172.751295475825,-43.592476255476839],[172.7515597930217,-43.592277748409707],[172.75166706935573,-43.592219094338056],[172.75210215092906,-43.592067238142825],[172.75233831662331,-43.592026060772461],[172.75259107817601,-43.591925401392338],[172.75280203051781,-43.591869671813164],[172.75299685817748,-43.59184902319673],[172.75331873309614,-43.591842064635685],[172.75392670290924,-43.591761887276235],[172.75548837769136,-43.591482687678301],[172.75563238265602,-43.591438605107804],[172.75587590640887,-43.591322791731628],[172.75624213332293,-43.59119166233716],[172.75666469128734,-43.591007257053185],[172.75697270798062,-43.590841065285439],[172.75733453471395,-43.590693805591542],[172.75751573157632,-43.59064196596556],[172.75775586518506,-43.590628428557615],[172.75795613688126,-43.590638937389187],[172.75809015489588,-43.590674877492937],[172.75844724321064,-43.590875164554973],[172.75855613119296,-43.590968857672785],[172.75868538198165,-43.591175055532361],[172.75876039812798,-43.591375106028266],[172.75878752899519,-43.591561008969279],[172.75878586276124,-43.591885154907224],[172.75883108099868,-43.59200896734054],[172.75891508105917,-43.592100176473963],[172.75902550813197,-43.592181446642783],[172.75965447739887,-43.592520156173094],[172.7598656578094,-43.592686366346108],[172.75995025837088,-43.592814132818312],[172.75997956311082,-43.592921703893708],[172.7599678717842,-43.593058002171524],[172.75991047646366,-43.593191863394047],[172.75968535371547,-43.593540211130239],[172.75952518610444,-43.593722658555279],[172.75940538426809,-43.593941297339633],[172.75876346836344,-43.594607332047133],[172.75853265375019,-43.594796021896329],[172.75821085366698,-43.59515181591707],[172.75810181855954,-43.595371466505355],[172.75805277474058,-43.595552886298059],[172.75803971250156,-43.595844592957498],[172.75809429054806,-43.596137343158887],[172.75807661799217,-43.596281011907507],[172.75797952511039,-43.59648790172119],[172.75787410112383,-43.596640388773089],[172.75776622188786,-43.596756223657394],[172.75744090283888,-43.596966500977381],[172.75711020846691,-43.597126522826102],[172.75684631853608,-43.597218164291824],[172.75613339144272,-43.597413206192975],[172.75576375116296,-43.597551801233379],[172.75532169570982,-43.597766145029901],[172.75477848756978,-43.59808462818264],[172.75436772417353,-43.598279856564616],[172.75398505019072,-43.598422199565384],[172.75359667215398,-43.598504561411282],[172.7537670287893,-43.598565436279721],[172.75420147982055,-43.598669738714399],[172.75472147748766,-43.598943140734164],[172.75483503367258,-43.598987774718886],[172.75546443383203,-43.599048189877351],[172.75623552572785,-43.599089815000646],[172.7564456781121,-43.599145638359246],[172.75667861328489,-43.599266609752128],[172.75679944757169,-43.599350425280086],[172.75707369410753,-43.599458517777492],[172.75731742887834,-43.599482536231967],[172.75771266328414,-43.599451770009367],[172.75836452348523,-43.599195901377669],[172.75877406637844,-43.599118430239642],[172.75909306989104,-43.59909542201089],[172.75986538355502,-43.599111003261982],[172.76007992099539,-43.599093085245862],[172.76016031591644,-43.599065521183299],[172.7602211278448,-43.599008562496643],[172.76023140012137,-43.59894897663353],[172.76020007842462,-43.598880479473692],[172.76008869958338,-43.598754638039473],[172.76011211439513,-43.598661494319323],[172.76040470446355,-43.598550006339707],[172.76052169543294,-43.598479208793236],[172.76085688353686,-43.598122626109394],[172.76101213079076,-43.597870564659338],[172.76114185945536,-43.59777386116707],[172.76143811708201,-43.597673273198524],[172.76271176008817,-43.597418765524068],[172.76336992989161,-43.597343864619404],[172.76371487392893,-43.597242741213407],[172.76430138668482,-43.596956809785482],[172.76470769544898,-43.596845004900949],[172.76493629296476,-43.596745529156586],[172.76541421359065,-43.596664393023737],[172.76604375267635,-43.596589508002744],[172.76636453789212,-43.596582150326917],[172.76671718711438,-43.596600698668432],[172.76689026116739,-43.596633646702145],[172.7670643028178,-43.596704864056832],[172.76728841828927,-43.596899269728176],[172.7674101551107,-43.596944358098149],[172.7675360932042,-43.596960191414681],[172.76792597661924,-43.596962154066176],[172.76808868763428,-43.596984094191797],[172.76821937034114,-43.59702271686303],[172.76828011516139,-43.597077585192437],[172.76837644303541,-43.597254981933673],[172.7685794464027,-43.597528758819855],[172.76873062601302,-43.597650620669199],[172.76881410269297,-43.597690317691018],[172.7689362676831,-43.59772135883405],[172.7693661761767,-43.597755182085926],[172.76956747697923,-43.597794936107832],[172.76969624217045,-43.597849760676922],[172.76993015007469,-43.598013746859827],[172.7705154116376,-43.598246869853277],[172.7713481116387,-43.598410973023768],[172.77226688498214,-43.598618281409756],[172.77243187154238,-43.598629775078081],[172.77255904621839,-43.598614631074014],[172.77324430914794,-43.598451666732629],[172.77381801425344,-43.598400759268557],[172.77401030976796,-43.598365213024977],[172.77419374827136,-43.598312631136629],[172.77428872264255,-43.598260684704812],[172.77435248955561,-43.598204894862555],[172.77467869308259,-43.597843211565355],[172.7748254948329,-43.597747156478263],[172.77546586698148,-43.597457672200278],[172.77616951179667,-43.597243312729979],[172.77631707820734,-43.597240810263834],[172.77640689519495,-43.597275831995844],[172.77647680736342,-43.597366460346542],[172.7764871401036,-43.597486955982411],[172.77637133704931,-43.597844734232687],[172.77642602819247,-43.59793065067683],[172.77652959651056,-43.597966239448425],[172.77673361009869,-43.597977443023794],[172.77704515366975,-43.597958061823981],[172.77727336055247,-43.597960127390245],[172.77861365684717,-43.598061326057326],[172.77903880469145,-43.597976249039505],[172.77956942878171,-43.597913343965729],[172.78005404229995,-43.597828647935273],[172.78010280536489,-43.597808752542605],[172.78016040029632,-43.597711078319996],[172.78014666613402,-43.597297761743235],[172.7801736672651,-43.597129706305729],[172.7802175723194,-43.59701471776232],[172.78038743958717,-43.596807588718988],[172.78067450724319,-43.596566468569129],[172.78085547102268,-43.596475783693101],[172.78091700224169,-43.59641935559452],[172.78096079758075,-43.596334080219016],[172.78087407211862,-43.596163735683724],[172.78081889115387,-43.596109064785004],[172.78082062784679,-43.596040186402803],[172.78095800190189,-43.595772756440724],[172.78103303709031,-43.595681958307445],[172.78110457886646,-43.595632032257846],[172.78124857582205,-43.595587737352432],[172.78212527430259,-43.595504592427986],[172.78224468467243,-43.595475646498329],[172.78232512735548,-43.595430688916672],[172.78260765945021,-43.595516315692869],[172.78271950311947,-43.595524361919928],[172.78288384774481,-43.595505855482159],[172.78316992657264,-43.595432114214262],[172.78319620735093,-43.595358600179097],[172.78320974319797,-43.595211678174245],[172.78312946883406,-43.59510653757232],[172.78314866946641,-43.595038142476653],[172.78325313783489,-43.594926238952851],[172.78332278981372,-43.594884321616199],[172.78350473658659,-43.594827940182689],[172.78362070546791,-43.594825368446706],[172.78386886586455,-43.594856722088672],[172.78411427069369,-43.594931199853832],[172.78438800008462,-43.5949840305192],[172.78467376319617,-43.594997625113074],[172.7848582866464,-43.594947999489762],[172.78531530380209,-43.594776159065383],[172.78546875481857,-43.594684694856106],[172.78555717736549,-43.594589506822714],[172.78579611023335,-43.594498022396898],[172.78588685364358,-43.594481804832164],[172.78607588397091,-43.594523127574078],[172.78643295784849,-43.594655075646408],[172.7866261048176,-43.594793830044637],[172.78673090321496,-43.594902255442641],[172.78682691394991,-43.594973297146325],[172.78698334290971,-43.594985384153695],[172.78728727192095,-43.594906623510035],[172.78755392200992,-43.594859577429617],[172.78772528446072,-43.594852602378865],[172.78784231886939,-43.59486407480896],[172.78823516365688,-43.594971772424095],[172.7885911526281,-43.595097228751243],[172.78882819874372,-43.595225705820262],[172.78895269607341,-43.595335336098032],[172.78899520992181,-43.595400604594083],[172.78899670110403,-43.595505685736562],[172.78887234278778,-43.595675094264116],[172.78894034836264,-43.595784350083171],[172.7889431624796,-43.595829916257102],[172.78887671162764,-43.595913802242826],[172.78901693827893,-43.595989785979143],[172.78919810236158,-43.595944108984177],[172.78933378612939,-43.595937425897056],[172.78975241124769,-43.596009149200057],[172.79005567089902,-43.596016459613587],[172.79023915010706,-43.596053083112182],[172.7905599553946,-43.596038274180763],[172.79067583612641,-43.59606171710854],[172.79076106668074,-43.596027837460063],[172.79133316332184,-43.596001240362064],[172.79156862839918,-43.595944403526033],[172.79185426269675,-43.595781498674441],[172.7919420833322,-43.595750684268957],[172.79264969771768,-43.595656345822839],[172.79300762881809,-43.595544352568666],[172.79363666229943,-43.595495246605836],[172.79377880345197,-43.595447420947913],[172.79403389731971,-43.595409703224206],[172.79412430907288,-43.595381503010721],[172.794324223166,-43.595285248344275],[172.79448154550556,-43.595253926710392],[172.79473101324882,-43.595230874075362],[172.79479735701324,-43.59517588779525],[172.79483560002072,-43.595077901268155],[172.79483213941575,-43.595002530344253],[172.79467177172299,-43.594836656161725],[172.79466315612052,-43.594747139458988],[172.79474294404025,-43.594345067438809],[172.79485631043397,-43.594014098328181],[172.79485506879536,-43.593941972866297],[172.79482921976364,-43.593892763825522],[172.79488044756877,-43.593801373592328],[172.79508356463776,-43.593635521240842],[172.79521377545268,-43.593487456210752],[172.79528604135837,-43.593438963225694],[172.79561848033975,-43.59327667294275],[172.79580521769353,-43.593227573839727],[172.79600673145777,-43.593204973000027],[172.79615353241854,-43.59320586513681],[172.79634819712325,-43.593230433230381],[172.79676632512007,-43.593336345767234],[172.79692981149603,-43.593348971962556],[172.79698521795098,-43.593340156256247],[172.79706748757036,-43.593300413933051],[172.79715325832001,-43.593214126305462],[172.79720136150283,-43.59305591867971],[172.79728707640601,-43.592986108444634],[172.79741683492782,-43.592970851309794],[172.79767389774156,-43.593007233094639],[172.79778103216427,-43.592977979071875],[172.79794569096487,-43.592862116656953],[172.7981035221645,-43.592787300874022],[172.79824854089858,-43.592765136546483],[172.79850863513104,-43.592783963710652],[172.7987023693656,-43.59275306058705],[172.79880184426426,-43.592679941903214],[172.79886355158436,-43.59256443718089],[172.79898044643068,-43.592505485503168],[172.7992396787362,-43.592336122720482],[172.799331161613,-43.592318995360323],[172.79971909495865,-43.592339934960933],[172.80028864496259,-43.592509759151774],[172.80071894701101,-43.592531039488449],[172.80091361409853,-43.592554789441657],[172.80150370587458,-43.592695559934967],[172.80167532171561,-43.592722239935703],[172.80205358937738,-43.592745045717798],[172.80229147294133,-43.592737173530146],[172.80259073847216,-43.592824850856552],[172.80300824416858,-43.592896163559104],[172.80325311684547,-43.592910631707824],[172.80348665902423,-43.592980725509307],[172.80358361660967,-43.592994308312996],[172.80395419688577,-43.592981708285471],[172.80414913418375,-43.592922975168982],[172.80423329152831,-43.592872515979344],[172.80438835584894,-43.592731596310514],[172.80467471898905,-43.592557765549948],[172.80477198061624,-43.592477164440226],[172.8049985908946,-43.592161865619694],[172.80543541367692,-43.5918892437926],[172.80554829592813,-43.591689003403793],[172.80560460230049,-43.591630662206114],[172.80593798710473,-43.591393608992163],[172.80606895054797,-43.591232836955221],[172.80618638080955,-43.591119853879178],[172.80670193582591,-43.590860596713291],[172.80685590050351,-43.590711478006007],[172.80690194968034,-43.590605937059301],[172.80687494345273,-43.59033486637891],[172.80694698146152,-43.589888471975598],[172.80701014278239,-43.589777377287845],[172.80726878596977,-43.58943250420829],[172.80732163537181,-43.589291678237664],[172.80719388561934,-43.588564467198218],[172.80720973696648,-43.588371894988036],[172.80724862519494,-43.588296955920626],[172.80731420095933,-43.588243761843302],[172.8074355438512,-43.588183188220796],[172.80793511218744,-43.588033388998689],[172.80789512994556,-43.587985239614419],[172.80782347344956,-43.587964229537356],[172.80771128219479,-43.587951975321616],[172.80757929380897,-43.587971472358205],[172.80734003307197,-43.588067684035842],[172.8072332996789,-43.588091905391401],[172.80685004102793,-43.5883600326626],[172.80663612328382,-43.58843278482064],[172.80654842601433,-43.588430745588269],[172.80651474030478,-43.588389449539207],[172.80652165882282,-43.58831787818972],[172.80664097352542,-43.58819463303621],[172.80685064026684,-43.588056413450445],[172.80725461159724,-43.587934908793926],[172.80766946437703,-43.587780105624461],[172.8078057114584,-43.587706770769962],[172.80792308836595,-43.587607382029475],[172.80802010684951,-43.587482477210258],[172.80807737471332,-43.587353453710456],[172.80811052871019,-43.587211333675825],[172.80800931369166,-43.586902951339418],[172.80789247098406,-43.586717989685141],[172.80758600761885,-43.586563773283032],[172.8073623667317,-43.586424912672229],[172.80572718804473,-43.585293474009461],[172.80549200770821,-43.585163504222947],[172.80522109553181,-43.585051751530784],[172.80494808382298,-43.58490001612612],[172.80456108735584,-43.584718551610678],[172.80445176194939,-43.584626612237933],[172.80429332643166,-43.584552867155629],[172.80393444840149,-43.584296173823319],[172.80384236441029,-43.584159242604457],[172.80374709370747,-43.583859510531994],[172.80360726147458,-43.583665140604722],[172.80346724238231,-43.583528486881775],[172.80349009683741,-43.583356726681224],[172.80312638810761,-43.582875188416153],[172.80289875972827,-43.582712991329053],[172.80258528221165,-43.582554787493379],[172.8022890151654,-43.58247476873197],[172.80193568242987,-43.582346478057026],[172.8016165944604,-43.582200777629346],[172.80115292445896,-43.582066080140599],[172.80085383061186,-43.581943102855071],[172.80039722939705,-43.581694421835536],[172.80018082004563,-43.581626512539287],[172.80001384907462,-43.581665658847463],[172.79980875433961,-43.581659627277041],[172.79919711358809,-43.581551585111988],[172.79860124201829,-43.581395395148974],[172.79843626225119,-43.581283092538371],[172.79826555728167,-43.581216340682289],[172.79811147627487,-43.581178791436521],[172.79790047456788,-43.58116185096651],[172.79779175100634,-43.581228109490986],[172.79772314429738,-43.581298490772262],[172.79760919884555,-43.581481433912053],[172.79687951022896,-43.582003912312231],[172.7966931945983,-43.582048692022809],[172.79647622731468,-43.582036960735024],[172.7957879655014,-43.581731662670109],[172.79548584949066,-43.581736795255878],[172.79532667874759,-43.581775858628646],[172.79512195358365,-43.581770449603923],[172.79494342687883,-43.581819292298086],[172.79487335369433,-43.581882645979718],[172.79474163782652,-43.582262115336704],[172.79464464228366,-43.582374673330342],[172.79424310033531,-43.582659203387358],[172.79374152982641,-43.582963180683308],[172.79345349691749,-43.583194788083063],[172.7930370050054,-43.583392756819023],[172.79271794903187,-43.583458989704802],[172.79226713052236,-43.583588281644786],[172.79213468036443,-43.583635312773282],[172.79198719848864,-43.583731028933023],[172.79184122820075,-43.58392714409181],[172.79177597925684,-43.584098554609774],[172.79160369502907,-43.584274001987417],[172.79155545500331,-43.584361974770729],[172.79153165091276,-43.5844759240847],[172.79148164368024,-43.584537511411234],[172.79133741215668,-43.584659524803108],[172.79126686509255,-43.584750428116841],[172.7910511909887,-43.584899503256715],[172.79093676355387,-43.584999150236399],[172.79085486661282,-43.585040689721509],[172.79073812056873,-43.585058574458579],[172.79065973477168,-43.585051947958114],[172.79056467492728,-43.585031424448829],[172.79047266510784,-43.584988666167405],[172.7904133829862,-43.584938314274858],[172.79037161437799,-43.584874128053634],[172.79032568040202,-43.584725295040712],[172.79025460403528,-43.584647098566812],[172.7902815721977,-43.584478770176993],[172.79023878804199,-43.584386128880887],[172.79014862210306,-43.584347785757551],[172.78997401576669,-43.58433449913106],[172.78989101304072,-43.58437351473323],[172.78982944235707,-43.584447235707408],[172.78973946408183,-43.584675325813734],[172.78975259289584,-43.584746843016895],[172.78978180808147,-43.584787505517191],[172.78977702299903,-43.584881140017295],[172.78982473449858,-43.585052757046547],[172.78968554819502,-43.585218627890107],[172.78957647969943,-43.585272542214227],[172.78947273718578,-43.585397599125194],[172.78941086239294,-43.585451510143223],[172.78934425803044,-43.585476328968525],[172.78924578849492,-43.585474436697453],[172.78911246787467,-43.585449609488002],[172.78888022670753,-43.585445669235376],[172.78879555039765,-43.585431286261063],[172.78872394392513,-43.585398738969793],[172.78855496221223,-43.585370243537554],[172.7884151897469,-43.585277872362774],[172.78839715774998,-43.585227415678659],[172.78843027422002,-43.585108892144127],[172.78840587707043,-43.585072110008248],[172.78833860837929,-43.585074416612521],[172.78825120209873,-43.585096945247926],[172.7881830651462,-43.585134906637428],[172.78807796529046,-43.585222412412172],[172.78793283634292,-43.585385929017917],[172.7878602190479,-43.585429734607722],[172.78779586964487,-43.585447173302036],[172.78760263480709,-43.585446814471261],[172.78739766260469,-43.585402673258656],[172.7872811640587,-43.585349782207906],[172.78720875249419,-43.585335060711088],[172.78714851128055,-43.585346653982022],[172.78701969887791,-43.585413675181691],[172.78688628298465,-43.585626825205381],[172.78671311399108,-43.585731850968031],[172.78666462953149,-43.585781463478561],[172.78654366047394,-43.585836883403459],[172.78635072340651,-43.585857052500977],[172.7862377651056,-43.585853869979445],[172.78602505096188,-43.585792153717883],[172.78583211511173,-43.58570715333321],[172.78559887054249,-43.585671599927018],[172.78548216490864,-43.585677323751554],[172.78528085550437,-43.585752940971027],[172.78505931186385,-43.585875431477028],[172.78491837849035,-43.585901548620257],[172.78467643354509,-43.58611746319184],[172.78455550406571,-43.586161085632817],[172.78447088778776,-43.586234039932449],[172.78430584044631,-43.586248405447115],[172.78421729889584,-43.586379789155629],[172.78412463161919,-43.586417701815172],[172.78408039924886,-43.586420589658431],[172.78404405472776,-43.586399991525155],[172.78406864814946,-43.586277311266407],[172.78418192520579,-43.586087447319969],[172.78447625188704,-43.585772136568096],[172.78441646890198,-43.585655059790284],[172.78438500491291,-43.58541242832851],[172.7843136487638,-43.585102280416386],[172.78426963665831,-43.585043760358985],[172.78399623061981,-43.585017042010612],[172.78387160211071,-43.584952516751734],[172.78384766800238,-43.584890973069612],[172.78382850075212,-43.584639630632388],[172.7838448774506,-43.584528460176678],[172.78388125730118,-43.584434975692417],[172.78407116894749,-43.584116587128548],[172.78441436379148,-43.583745813014737],[172.78449893520752,-43.583684474012721],[172.7848288522448,-43.583597304805899],[172.7849416740853,-43.583533227349179],[172.78502694915412,-43.583378335998972],[172.78496261444423,-43.583287633104405],[172.78486608386135,-43.583264040668773],[172.78476575339076,-43.583264031911973],[172.78468501396316,-43.583293053378512],[172.78456841344425,-43.583374771628819],[172.7844917818515,-43.583398038032904],[172.78433085100164,-43.583406468602789],[172.78424233859297,-43.583426831093703],[172.78408096868895,-43.583558077297674],[172.78399601038313,-43.583727555282529],[172.78393563426874,-43.583777144184843],[172.78383895672135,-43.583794519556179],[172.7837465758453,-43.583753465943381],[172.78370295275872,-43.583586716326302],[172.78363058578645,-43.583560377270516],[172.78352987323296,-43.583563157997119],[172.78307095892612,-43.583664665510398],[172.78297862497459,-43.583714193264996],[172.78270482589062,-43.583798582471552],[172.78247136911688,-43.583824520716689],[172.78219790610632,-43.583815356076073],[172.78209338260493,-43.583844330396033],[172.78193991574824,-43.58394641513712],[172.78185956613686,-43.583969762724237],[172.78177117957674,-43.583954827215031],[172.78161445920969,-43.583825948487089],[172.78153431085849,-43.58379365049273],[172.78118003198227,-43.583834031948065],[172.78101897242212,-43.583980041242775],[172.78080966833116,-43.584005932311257],[172.78069301876016,-43.583996974568741],[172.78066953382628,-43.583812704310049],[172.78061714936177,-43.583809722468338],[172.78052863512161,-43.583830082078734],[172.78045596134262,-43.583888469614884],[172.78009755031329,-43.584042832500884],[172.77990798151384,-43.584159431809709],[172.77973498586502,-43.584214744376538],[172.7795539218553,-43.58424068754929],[172.77945321884192,-43.584240493328352],[172.7792081242066,-43.584196260018707],[172.77907157914407,-43.584140530585906],[172.77903567352297,-43.58410237358089],[172.77895489762113,-43.584140305047598],[172.77885534760998,-43.58423123466936],[172.77876748301983,-43.584378282756177],[172.77871867727816,-43.584412674249251],[172.77854785363593,-43.584483206257246],[172.7783484781354,-43.584638141709974],[172.77822382049661,-43.584684631568678],[172.77812197251819,-43.584692447659165],[172.77792131096814,-43.584590220965026],[172.77765255343527,-43.584311469935201],[172.77688303867433,-43.583588016863644],[172.77681274554902,-43.583504050884066],[172.77632877743318,-43.582942415680172],[172.77600706208509,-43.582719382916018],[172.7759642379695,-43.582643754050309],[172.77590237443579,-43.582391606183052],[172.77589943194522,-43.58228328028796],[172.77596932347114,-43.582174196719727],[172.7762004136263,-43.581983670932793],[172.77638929319909,-43.581852579669288],[172.77644491494974,-43.581783536437527],[172.77646858350016,-43.581713620332614],[172.77644791815578,-43.581674862004121],[172.77637749154553,-43.581627722515584],[172.77602956943667,-43.58145938384498],[172.77599710368816,-43.5813963811026],[172.77605772355682,-43.580780884836393],[172.7762360888859,-43.580377577150493],[172.77626813745505,-43.580252121741353],[172.77630809613552,-43.580198084868101],[172.77631593560284,-43.58008788916149],[172.77644316288553,-43.58004770928801],[172.77655022289832,-43.580035132661649],[172.77675865876549,-43.580039861855184],[172.77698629776341,-43.58007677301768],[172.77702780818095,-43.580105487244701],[172.77722892816803,-43.580179713507739],[172.77738859201347,-43.580210548643997],[172.777765547201,-43.580162299319703],[172.77819101184448,-43.5801593438118],[172.77827095416569,-43.580144732042022],[172.77829221706438,-43.58012208276827],[172.7783225903477,-43.57994565992189],[172.77846165263574,-43.579818790582578],[172.77855354442858,-43.57978790421928],[172.77868956174504,-43.579680567752504],[172.77877357703437,-43.579568178214366],[172.77881092724141,-43.579312441968639],[172.77886854604745,-43.579203963116775],[172.77891043637365,-43.579027382277467],[172.77894634188374,-43.578963161916981],[172.77896492998167,-43.578757362473588],[172.77900761035755,-43.578669384172692],[172.77903372550358,-43.578640531254955],[172.77910108907815,-43.578610407410892],[172.77943100418224,-43.578518301400393],[172.77958549992621,-43.578437111593367],[172.77977211626757,-43.578310242253828],[172.7796714707431,-43.578296992286376],[172.77923593249994,-43.578314880783815],[172.77914158881947,-43.578305694396455],[172.77894755343593,-43.578327289577395],[172.77884986770559,-43.578317556237025],[172.77842052884827,-43.578468625340527],[172.77827593989861,-43.578482301488577],[172.7779501878872,-43.578452225624737],[172.77770741046757,-43.578390795587922],[172.77760150971741,-43.578392120340894],[172.77740147478943,-43.578428287986846],[172.77730448216525,-43.578432150977072],[172.77715553957657,-43.5784172739992],[172.77711144028257,-43.578385583386016],[172.77708532746132,-43.578312868796935],[172.77710090325724,-43.57822024622179],[172.77749261610523,-43.577692644332657],[172.77766534594997,-43.577503082334367],[172.77774442392428,-43.577318470425844],[172.77778296062786,-43.577145034883443],[172.77775734426319,-43.576937258766854],[172.77779912498988,-43.576790932082226],[172.77786198131551,-43.576672559275309],[172.77782838190402,-43.576513840406236],[172.77784072998415,-43.576389156560772],[172.77772422252329,-43.576143656339532],[172.77737029148216,-43.575798557914119],[172.77721417274978,-43.575716315786693],[172.77689020925456,-43.575608534325077],[172.77677160432557,-43.575529966463208],[172.77671443350269,-43.575416582266008],[172.77667279429474,-43.575222550942875],[172.77670287001578,-43.575127255441238],[172.77680543507188,-43.575021566579601],[172.77720008823596,-43.574800023178788],[172.77730607560306,-43.574773487263485],[172.77744090069348,-43.574785635318072],[172.77755597059897,-43.574815032801872],[172.77765851128424,-43.574816402808082],[172.77778829721589,-43.574784420176691],[172.77767843579156,-43.574450151549762],[172.77765337016493,-43.574295050833939],[172.7775312917901,-43.574050259826926],[172.77749935974364,-43.573943858320114],[172.77748847372311,-43.573772307499105],[172.77744940584878,-43.573686781783891],[172.77733561332712,-43.573512959616494],[172.77712469885711,-43.573380457314805],[172.77705144064916,-43.573297656097481],[172.77701348131123,-43.573214023266139],[172.7768611181825,-43.572720296839755],[172.77681969288179,-43.572267485688712],[172.77682780396361,-43.572083185897341],[172.77687409809511,-43.571820984395735],[172.77692817011632,-43.571665857784936],[172.77705232500634,-43.571446487915082],[172.77715163944376,-43.571313689739569],[172.7772962699498,-43.571183320843474],[172.77746008575582,-43.571089095887437],[172.77773837973919,-43.570981046775174],[172.77777747038647,-43.570958972467849],[172.77779102372662,-43.570910376212183],[172.77777996399439,-43.570887033876993],[172.77769537830557,-43.570854274287981],[172.77713719275198,-43.570697595256071],[172.77698627771841,-43.570618334271416],[172.77684990910129,-43.570423037526915],[172.7767177178641,-43.570002283949627],[172.77662258833286,-43.569807247528495],[172.77641586504635,-43.56954995399343],[172.77633219691117,-43.569470733577418],[172.77625915436354,-43.569431602527118],[172.77618491270482,-43.569415339718176],[172.77612081315274,-43.569369022736005],[172.77586648490603,-43.569026545384268],[172.77585057767428,-43.569008325738835],[172.7757586297202,-43.568958262231668],[172.77562558858659,-43.568969526573447],[172.7755080335231,-43.569012335826763],[172.77525571962568,-43.569328427354115],[172.77515065949646,-43.569407637715038],[172.77501965828495,-43.56946941885257],[172.77457431373375,-43.569643042769385],[172.77432661511409,-43.569716028272964],[172.77422029409044,-43.569734457024353],[172.77396843321202,-43.569728106646458],[172.77377131130206,-43.569787144394496],[172.77373773529087,-43.569824535367388],[172.77371444452527,-43.569893191214625],[172.77360466846042,-43.569941236327608],[172.77348382318144,-43.56996890994327],[172.77336063664006,-43.570026472688212],[172.77303426247764,-43.570273800521498],[172.77289333300658,-43.570406062276071],[172.77270894465295,-43.570535896375851],[172.77221000196252,-43.570830690851572],[172.77195740240398,-43.570920499266002],[172.77173020837176,-43.570972450230947],[172.77158379940155,-43.570980531708621],[172.7712025172172,-43.570909806801041],[172.77111849944154,-43.57092422541168],[172.77107975062739,-43.570953501474001],[172.77111996967315,-43.571026515892584],[172.77117670191095,-43.571055622927204],[172.77150332330783,-43.571139114671759],[172.77149806692182,-43.571153690944996],[172.77137768276046,-43.571156781826183],[172.77135828348045,-43.571177992907124],[172.77135769430487,-43.57123552846646],[172.77171485963743,-43.571298371060337],[172.77169797398699,-43.571342637928737],[172.77152864740435,-43.571319609133859],[172.77147366245785,-43.5714178249303],[172.77134861493803,-43.571376785957661],[172.77133738421824,-43.571399273956324],[172.77148357805635,-43.571448368933162],[172.77144134716522,-43.571514195141781],[172.77137898197782,-43.57150083429849],[172.77135442593826,-43.571510239584761],[172.77135511072905,-43.571525638108561],[172.77142217799127,-43.571572774054779],[172.77143191856271,-43.571649599215213],[172.77132378916653,-43.571850266322755],[172.77118347736661,-43.5720136816402],[172.77108240066516,-43.572215623206858],[172.77096581075173,-43.572295346844427],[172.77091533656071,-43.572379254741399],[172.77090844467367,-43.572433175984131],[172.77082297996645,-43.572534661916208],[172.77075910522188,-43.572527240471224],[172.77065710151888,-43.572581241074545],[172.77043255025177,-43.572815799553531],[172.76932432619117,-43.572997254218997],[172.76890820226484,-43.572902410214255],[172.7680961669339,-43.572674670968716],[172.76731476676466,-43.572404398519446],[172.76656101724492,-43.572095099026271],[172.76632034385943,-43.571979533905221],[172.76583825785849,-43.571748130497262],[172.76520765246821,-43.571399005581618],[172.76465885282616,-43.571033387849496],[172.76433805609153,-43.570792585453319],[172.76422212919411,-43.570700773880084],[172.76340860886117,-43.570010273104998],[172.76250017639251,-43.569086000722592],[172.7624957356781,-43.569081579445893],[172.76150521522328,-43.567972542584627],[172.76150410463913,-43.567971549807119],[172.76106781559884,-43.567444974278665],[172.76079092338654,-43.567101515719237],[172.76043011756354,-43.566654062342714],[172.76028242802718,-43.565675807495033],[172.75636697687125,-43.561432047171031],[172.75130626319552,-43.562410802487754],[172.74760769212543,-43.562293566604701],[172.74658440025831,-43.56227077347242],[172.74478281792582,-43.561120981799739],[172.7414371519794,-43.553810513963235],[172.74135311827055,-43.553658873063767],[172.74083541398153,-43.552521729357863],[172.73996033950192,-43.551581593425979],[172.73874451089247,-43.550260874691183],[172.73429816247329,-43.548581066152764],[172.72792310816166,-43.548399045008836],[172.71785937832291,-43.551280674282886],[172.71415287639502,-43.552292095122247],[172.70801922494817,-43.551966670612089],[172.70345589534924,-43.550661290458876],[172.70240763852252,-43.550094632834437],[172.70077307841734,-43.54920804352269],[172.695537064398,-43.546449554337961],[172.69405371929025,-43.54793804398988],[172.69310597205725,-43.548888150149367],[172.69296624393854,-43.549051831825786],[172.69268151829075,-43.549465620958038],[172.69256973999421,-43.549683042379371],[172.69245237143809,-43.549977164555848],[172.69220321494723,-43.549968120149266],[172.69191481058013,-43.550227295041168],[172.68944407881949,-43.552732695789089],[172.69028193279422,-43.553175544543727],[172.69111006061402,-43.553634388342758],[172.69112380361557,-43.554216007296681],[172.69126071667753,-43.554461561675019],[172.69066428193602,-43.554522168592875],[172.69010985026412,-43.554648616966645],[172.68942180628719,-43.554827734552369],[172.68910165626232,-43.554969581105951],[172.6885546186825,-43.555101264471674],[172.68836668751388,-43.555171795571674],[172.68804252594205,-43.555370444755773],[172.68788480099687,-43.555489229976203],[172.68659136734991,-43.556662271150856],[172.68654197185734,-43.556732998820394],[172.68652528044075,-43.556800214459223],[172.686546029715,-43.556953342809408],[172.68660858111383,-43.55706759754225],[172.6867611277938,-43.557232702459984],[172.68709541828358,-43.5573763344604],[172.6873180526317,-43.557492017266497],[172.68762432128645,-43.55759604262596],[172.68845427244594,-43.557925069708425],[172.68897373493354,-43.558104497106086],[172.68950088060649,-43.558379657666457],[172.68977059040427,-43.558443599317052],[172.68988460942376,-43.558446249735361],[172.6900158884107,-43.558487484819373],[172.6901517835428,-43.558497757810592],[172.6903980791071,-43.558637089727668],[172.69055374938824,-43.558775275442052],[172.69069826081957,-43.558989246122124],[172.69082904964017,-43.559271971592921],[172.69095465414756,-43.55947913765192],[172.69099413589106,-43.559603322238097],[172.69100972157062,-43.55975166352512],[172.69099628828607,-43.560054348391425],[172.6909761084332,-43.560296146623998],[172.69093781665762,-43.560447763860324],[172.69085975285265,-43.560604495981288],[172.69072585310784,-43.560784127763121],[172.69062346471418,-43.560975820238241],[172.690331465436,-43.561272528392124],[172.68971470089897,-43.561662178578906],[172.6895137313048,-43.561808581464099],[172.68937002080187,-43.561944334541565],[172.68924177486031,-43.562106601804615],[172.68911392687303,-43.562191343879647],[172.68895413070263,-43.562204235460591],[172.68877632807451,-43.562179170141036],[172.68863407715676,-43.56210314758345],[172.68826977779761,-43.561794211381311],[172.68796868606913,-43.561402517877283],[172.68787366009173,-43.561317438960288],[172.68774257826846,-43.561237123760002],[172.68776012726545,-43.56121961350437],[172.68763503092063,-43.561131210748606],[172.68715875995849,-43.560784147352805],[172.68702852290079,-43.560612801199923],[172.68691891551956,-43.560546500335498],[172.68680771157801,-43.56050162498282],[172.68680445099321,-43.560629115491928],[172.68641507568785,-43.560431666624623],[172.68609003345631,-43.560220886780755],[172.68580288192464,-43.56001003005705],[172.68534651230877,-43.559839586082447],[172.68467623164409,-43.559803703543487],[172.68407056456297,-43.559842640448231],[172.68271657000275,-43.559995293875353],[172.68202980712726,-43.560056325297921],[172.68150542654587,-43.559965093858118],[172.68117040429158,-43.559889605321018],[172.68089168486642,-43.559773754067656],[172.6807260247038,-43.559631835608975],[172.68044742709469,-43.559704171367933],[172.68012084635629,-43.559437814324497],[172.67908240262605,-43.558574552906379],[172.6789249533818,-43.559266083624607],[172.67718989932013,-43.558296938109379],[172.67254275265026,-43.555699876546008],[172.67010838185578,-43.554347740030785],[172.66899376678199,-43.553735924126009],[172.66774378093692,-43.553025378020251],[172.66755346707529,-43.552918034879312],[172.66741794944352,-43.552842095436226],[172.66684368415471,-43.552517622599623],[172.6636428977562,-43.550717313362227],[172.66024170364767,-43.548793861316213],[172.65956188809935,-43.548430950158235],[172.65790600870554,-43.547493080750712],[172.65664371125914,-43.546772651200378],[172.6554386968709,-43.546106405593534],[172.65426851509187,-43.545457990866318],[172.65265732165622,-43.544591763683911],[172.65186013402803,-43.544184599299612],[172.65054019128237,-43.543503454989157],[172.65057179023017,-43.543240358123157],[172.65057344145035,-43.540961303732864],[172.65056798743473,-43.539912474609309],[172.6461799416908,-43.539923471013424],[172.64570499340604,-43.539926862529008],[172.64269054789142,-43.539927746544535],[172.63966972279385,-43.539939876303158],[172.63665346479598,-43.539933302008095],[172.6336148027971,-43.539947376113062],[172.6306178163627,-43.539947007300107],[172.63061744504199,-43.539947006100476],[172.62806313256601,-43.539938365100987],[172.62793874516294,-43.539937150011603],[172.62547933586214,-43.539953971913711],[172.62459927718325,-43.539955767941201],[172.62379866652921,-43.539960159734662],[172.62180240726846,-43.539960056914744],[172.61860415606199,-43.539960418058982],[172.61786540556491,-43.539988745799448],[172.61667569327193,-43.540043650914726],[172.61330967539067,-43.540031775950645],[172.61234500423663,-43.540083435032827],[172.61165126442347,-43.540445751919535],[172.61232621495654,-43.541045472826966],[172.60744089957254,-43.54105095409485],[172.60527414821294,-43.541052948560278],[172.60444606565582,-43.541053868459734],[172.60327487876387,-43.541053412257014],[172.60337969620275,-43.541151291662295],[172.60134329520082,-43.541150962470212],[172.60012271784424,-43.541150661920462],[172.59987422163402,-43.541161678119764],[172.59992119279261,-43.541134019440108],[172.59993386731551,-43.541126590284534],[172.59709352775718,-43.54112607076501],[172.5969769330402,-43.541125389703986],[172.58270762641101,-43.54112678491807],[172.5824194257315,-43.541294651903883],[172.57976844339643,-43.541296554412718],[172.57918528734851,-43.541639631417667],[172.57867043450889,-43.54118527312334],[172.5785121148073,-43.541044133673353],[172.56848842582394,-43.541027541866995],[172.56859527131161,-43.541249719058257],[172.5688550942522,-43.541630227073959],[172.5693108832242,-43.542077653863203],[172.57084355996145,-43.543103145042089],[172.57266666632063,-43.544394425391296],[172.57311426447555,-43.544693866928093],[172.57427040017939,-43.54541824494175],[172.57498758120022,-43.545829434448237],[172.57653374163874,-43.546653654698098],[172.57773573878262,-43.547256700474264],[172.5789919494419,-43.547864255225974],[172.57899416135015,-43.547866604466059],[172.5796449597394,-43.548166138047527],[172.58060826828387,-43.548547852587078],[172.58170110317241,-43.548943809394878],[172.58312543718066,-43.549417230580111],[172.58596899675339,-43.550306284148625],[172.58699259064855,-43.55068131988007],[172.58778338672064,-43.551048303957678],[172.58850420215441,-43.551439882308109],[172.58900790100267,-43.551755670777958],[172.58957418828018,-43.55220800538936],[172.59047597381132,-43.553028010522418],[172.59021884613455,-43.553209154241031],[172.58991183287853,-43.553516807604247],[172.58967232657906,-43.553727817194456],[172.58954592244274,-43.553910238838405],[172.58948892517881,-43.553935426054309],[172.58941559136017,-43.554123890818339],[172.5891922202407,-43.554310105722998],[172.58903049905842,-43.554496901973828],[172.58897561247497,-43.554648605558249],[172.58889307198487,-43.554715840306926],[172.5887291104782,-43.554794847766935],[172.58857498060385,-43.554902703815898],[172.58846438671023,-43.554944175322362],[172.58833425924075,-43.555017901472795],[172.588204174228,-43.555139890145824],[172.58810794146157,-43.555199511474747],[172.58800082621764,-43.555220915694143],[172.5879470595012,-43.555153280462591],[172.58789030117666,-43.555034130389949],[172.58777958917759,-43.554983847994848],[172.58749434341777,-43.555037564728259],[172.58729522105932,-43.555097984647993],[172.58711543765915,-43.55520907767108],[172.58699815801393,-43.555250343527767],[172.58689610254808,-43.555237819151557],[172.58684305943649,-43.555227542776855],[172.58671254830247,-43.55513964028183],[172.58660239834518,-43.555115921173268],[172.58647055020316,-43.555114994150188],[172.58616909302404,-43.55514928990565],[172.58599551631389,-43.555221505483118],[172.58575857807003,-43.555271520992854],[172.58556387445739,-43.555282971050993],[172.58538684016014,-43.555263420362536],[172.58481487266232,-43.554935572731743],[172.58470782991526,-43.554892233921933],[172.58455171726331,-43.554855109697982],[172.58409427904101,-43.554671201531484],[172.58365144682836,-43.554416211524],[172.58341814302111,-43.554316225418304],[172.58325860240876,-43.554184002558294],[172.58311473188414,-43.554095506994564],[172.58306142436618,-43.554016075623487],[172.58303492081146,-43.553927647738846],[172.58297651440708,-43.55351045006698],[172.58295272534488,-43.553459309459647],[172.58287220136305,-43.55339499581487],[172.5825476758738,-43.553220930635987],[172.5822917648056,-43.553114826849523],[172.58214442687043,-43.553098711182948],[172.5816822978004,-43.553112688581805],[172.5815298096683,-43.553089439958207],[172.58136937331477,-43.553087682076296],[172.58113816596307,-43.553115288546778],[172.58080865118146,-43.55317972151277],[172.58057607113392,-43.553244509174547],[172.58024962413185,-43.553401875162372],[172.5801900275894,-43.553479992916387],[172.58015371690851,-43.553681373650086],[172.58013322615975,-43.553797452620358],[172.58006221871304,-43.553860671461834],[172.57988344619844,-43.553985263149308],[172.57987925089748,-43.554375309775104],[172.5797847417889,-43.55461348375691],[172.57971742929098,-43.554732722088033],[172.57968246734464,-43.55495346661727],[172.57961775076734,-43.555019769724645],[172.57960727082622,-43.555245016293121],[172.57952831746104,-43.555328915229794],[172.57951946161506,-43.555480783519684],[172.5795913999219,-43.555764860451916],[172.57959631139093,-43.555859782776494],[172.57950098105931,-43.555948483731889],[172.5794495183809,-43.556031493246827],[172.57943960002009,-43.556229279018595],[172.57936951478979,-43.556586577922559],[172.57940834370501,-43.556718001982354],[172.57947993672641,-43.556784806356568],[172.57947987234249,-43.556847475338444],[172.57939623975759,-43.556909566789749],[172.57933255547621,-43.556987308840938],[172.57931334464195,-43.557239355688019],[172.57924855849163,-43.557475387419437],[172.57929960787939,-43.557558774057036],[172.57941357580256,-43.557674627170691],[172.57942982791559,-43.55779453281346],[172.57937642183941,-43.557836295899413],[172.57930356296259,-43.557897886656036],[172.57928177131802,-43.557986948011475],[172.57930746743597,-43.558137502683678],[172.57935708935298,-43.558265995054782],[172.57942939819154,-43.558336944006946],[172.57955898031827,-43.558397658678608],[172.57969301858736,-43.558565449468581],[172.57969431655528,-43.558592466826248],[172.5795254328425,-43.558788497464924],[172.57963638405539,-43.558964667342956],[172.57961528008946,-43.559168534753567],[172.57957099230163,-43.559234282603889],[172.57945414201311,-43.559318762398448],[172.57940194288554,-43.559400418503905],[172.57938626546326,-43.559464830857358],[172.57935946614475,-43.559526140863106],[172.57927360358264,-43.559587863821804],[172.57906161819409,-43.559625171272152],[172.57868269878318,-43.55979107345803],[172.57855571957009,-43.559782951891513],[172.57844065829244,-43.559823586814588],[172.57824237367831,-43.559920100809954],[172.57804903412952,-43.560053099691565],[172.57806667860666,-43.560079637136873],[172.58027836168171,-43.562211236387171],[172.58099823490969,-43.56178608782362],[172.58115734480438,-43.561929027076793],[172.58254359245055,-43.563173883968766],[172.58335322839673,-43.563899243352033],[172.58516528382833,-43.56552325455376],[172.58574274134472,-43.566040567791809],[172.58764462683999,-43.567748423397582],[172.58833438297538,-43.568365624535197],[172.59046762179258,-43.570274158096844],[172.59189227597633,-43.571554874155652],[172.59582164265677,-43.575088024016992],[172.59722657843511,-43.576350864688521],[172.59762432448426,-43.576601950839787],[172.59815295320513,-43.576615695638694],[172.59950955366605,-43.57649457762767],[172.59915938658401,-43.577975706478746],[172.59910383521043,-43.578060150855869],[172.59758166362147,-43.579046611865941],[172.59671254940838,-43.579661415070682],[172.59595077014208,-43.580169981705858],[172.59572068547936,-43.580459552540951],[172.59552988461371,-43.580819764468124],[172.59545453921822,-43.58119551164372],[172.59544141384697,-43.581657378622516],[172.59545140410546,-43.581996690710874],[172.59548925081674,-43.582171415275809],[172.59558509611495,-43.582341572797105],[172.5963465567138,-43.583164452621538],[172.59643880200088,-43.583317848955623],[172.59656694132772,-43.583772110721362],[172.59664835548944,-43.583933932556192],[172.5967491342596,-43.584089609765705],[172.59702305254731,-43.584360700286958],[172.59726489677081,-43.58464959542605],[172.59736935165526,-43.584811677970329],[172.59742453304818,-43.584951346655444],[172.59750024888407,-43.58529971386686],[172.59765823012225,-43.585627210789909],[172.59783079555925,-43.585829601048744],[172.59846404725786,-43.586216664436165],[172.59852326865735,-43.58625225874092],[172.59882086483984,-43.586541886518916],[172.59906243076844,-43.58704327475882],[172.59937064947999,-43.587357159487546],[172.59978489974736,-43.58759740048189],[172.60083905410022,-43.58812377681793],[172.6017790651662,-43.588830189009194],[172.60237525539418,-43.588928158318659],[172.60276439796348,-43.589260053403862],[172.60305938289119,-43.589443411989144],[172.60314208625314,-43.59009154753079],[172.60357626238482,-43.590585130494894],[172.60346532349749,-43.591350008103888],[172.60363456157478,-43.591611805227664],[172.60382996492839,-43.591964274454995],[172.60392548542794,-43.591906528694125],[172.60488353791735,-43.591460356937702],[172.60602413342238,-43.591685435065436],[172.60660553536303,-43.592347440948352],[172.60710244324522,-43.592117112962079],[172.60923913300473,-43.5911279474239],[172.6095067446393,-43.591123459320677],[172.6095467882727,-43.591195449172567],[172.61042706262728,-43.592773997405587],[172.6119717547613,-43.594088272908309],[172.61247228922304,-43.594508122992899],[172.61321283910345,-43.595057722429424],[172.61393494425349,-43.595762125924395],[172.61399525037424,-43.596444933279585],[172.6142962562721,-43.596802062844091],[172.61464922170202,-43.597113355609167],[172.61500461155731,-43.597161554567023],[172.61585368438639,-43.59719538498468],[172.61650488673757,-43.597426456434007],[172.61774586957713,-43.597494812044161],[172.61965995013301,-43.598392695460717],[172.6204472958224,-43.599143555728169],[172.62110223317325,-43.599851742337435],[172.62182116975572,-43.600076975114909],[172.62288693178019,-43.600357732910666],[172.62318619426381,-43.601303523183425],[172.62319389536285,-43.601975436748226],[172.62360764641795,-43.6026250970082],[172.62379883499906,-43.602843176012449],[172.62413627151611,-43.60345314503342],[172.62467277240316,-43.603853790482383],[172.62413020233834,-43.60406972767732],[172.62395107698421,-43.604241567620747],[172.62389146624284,-43.604740560243883],[172.62422704833364,-43.60565026998534],[172.624471819539,-43.605921468110616],[172.6244713840882,-43.606230488184949],[172.62472150474852,-43.606718072379429],[172.6247607183418,-43.607047751956863],[172.62493441477039,-43.607511313864698],[172.62511200344753,-43.607707735984853],[172.62562983154996,-43.608069327585888],[172.62575207033319,-43.608439707097851],[172.62625998917551,-43.60902240451766],[172.62703370196286,-43.609909405829363],[172.62749692722394,-43.610087756997871],[172.62784206981522,-43.610123727020358],[172.62850017665966,-43.610773083399764],[172.63121739797197,-43.613328154457996],[172.63440391888361,-43.611302739297237],[172.63608527641006,-43.610278393148477],[172.63657570079044,-43.609710712938288],[172.63885522288123,-43.609539655217446],[172.64011649712535,-43.609243615435709],[172.64165554054108,-43.608933665978064],[172.64262783351083,-43.608655330789631],[172.64349377905725,-43.608002444467445],[172.64351888342492,-43.607969027421142],[172.64379366379146,-43.606383987851821],[172.64536511029061,-43.605857990241311],[172.6455038447084,-43.606161229220319],[172.64557400109547,-43.606305152561617],[172.64600209008131,-43.605823767843269],[172.64619118258682,-43.605653905130794],[172.64636404725158,-43.605525410878656],[172.64655991587691,-43.605404190784014],[172.64680747692171,-43.605279078207431],[172.64701911785045,-43.60519383250827],[172.64752490010412,-43.605027015890897],[172.64786979656779,-43.604847365936735],[172.64824971521,-43.604589846962334],[172.64933083136677,-43.603734084472798],[172.64964875981798,-43.603523372181151],[172.64985266350553,-43.603424501260868],[172.65007604750005,-43.603363596984693],[172.65052473272002,-43.603295637671749],[172.65118315792645,-43.603211659102072],[172.65167254499792,-43.603175694079297],[172.65273397861168,-43.603208636843995],[172.65307654718902,-43.603235518767555],[172.65342638075487,-43.603291955231867],[172.65377423980073,-43.60330390424874],[172.65498656178229,-43.603472615021396],[172.65645405498179,-43.603743016304854],[172.65771889746495,-43.604682339104222],[172.65786637286155,-43.602863406369345],[172.65854284126274,-43.602018320238706],[172.65928376158959,-43.600880337556333],[172.65948576746669,-43.600718144687903],[172.65961212273896,-43.60052448189532],[172.65983851335321,-43.600322112515393],[172.66011205679825,-43.599996796360287],[172.66031637323604,-43.599819391879123],[172.66061791999846,-43.59947074693337],[172.66095479471971,-43.599184604607544],[172.66115564778494,-43.598961087151487],[172.66134445248196,-43.598831086620898],[172.66171950214084,-43.598496792911646],[172.66220656445651,-43.597938265779703],[172.66231268049538,-43.597772092763037],[172.66249167087528,-43.597268929817083],[172.66263225455734,-43.597053515551885],[172.66282872335844,-43.596880585394928],[172.66299330253113,-43.596760685318401],[172.66310778886924,-43.59669232116093],[172.66326050829068,-43.596632803525182],[172.66348780464017,-43.596596555824668],[172.66397739551616,-43.596579807525117],[172.66432726494412,-43.596490974014507],[172.66456289445807,-43.59649328636246],[172.66467929804276,-43.596480841963547],[172.66486542614024,-43.596428533437191],[172.66510011905538,-43.596331616305292],[172.66592977035151,-43.595579316567587],[172.66637519354896,-43.595146257475371],[172.66671410927313,-43.594682992409183],[172.66695002018662,-43.594430843565341],[172.66730548995409,-43.594131950540174],[172.66738783204596,-43.594094732894639],[172.66771914793068,-43.593997010916702],[172.66781291874236,-43.593976573889123],[172.66796680339939,-43.593973419263783],[172.66815422260109,-43.594022405729902],[172.66842720793593,-43.594259196406412],[172.66875097393807,-43.594453634010286],[172.66928691004071,-43.594725489988498],[172.66965366456094,-43.594875748986198],[172.66999157964398,-43.595066802367391],[172.67032305124906,-43.595213085575296],[172.67052206189246,-43.595318467507504],[172.67082959890178,-43.59542416162035],[172.67107206637945,-43.595535070192831],[172.67137933914304,-43.595621403158219],[172.6716437650694,-43.595727151229482],[172.67248281708521,-43.595829053803435],[172.67271809179556,-43.595827836710434],[172.67295210268841,-43.595785466590513],[172.6733538073151,-43.595661367433394],[172.67383449737758,-43.595363892371189],[172.67434490610469,-43.595137182450166],[172.67469306876518,-43.594946835632918],[172.67500003610036,-43.594814087204817],[172.67523161732325,-43.594669598515758],[172.67569470470787,-43.594463187505426],[172.67598587455996,-43.594295275441432],[172.67620047299883,-43.594198098441346],[172.67635935622795,-43.594094460424877],[172.67660917924351,-43.593873755458105],[172.67680061448726,-43.593729149996207],[172.67697088791041,-43.59351065042587],[172.67717734079005,-43.593406875535187],[172.6774239082348,-43.593237933405852],[172.6776235567678,-43.593155298247837],[172.67781264246923,-43.593101896447273],[172.67825478104075,-43.592986898091688],[172.67860944299821,-43.59296736621824],[172.6789345944089,-43.593045895566775],[172.67919760275691,-43.593069054212776],[172.67944487921841,-43.593115308799746],[172.67966964408055,-43.593201658269209],[172.68000743378371,-43.593280310016489],[172.68052545042144,-43.593434379035777],[172.6812929951914,-43.593490906368331],[172.6816496574445,-43.593374305950178],[172.68236489991619,-43.59319963404657],[172.68260316192709,-43.593123040202016],[172.68281556064471,-43.593017290713881],[172.68300391538219,-43.592889774169514],[172.68327771421258,-43.592768977041779],[172.68375876735223,-43.592459395526951],[172.684116618339,-43.59218449775927],[172.68469604335118,-43.591681594835677],[172.68501329067215,-43.591351837003614],[172.68594589646051,-43.590465152857092],[172.68603578911592,-43.590330607622626],[172.6861769965976,-43.590047364565926],[172.68640751431707,-43.5897411356205],[172.68649490432361,-43.589515551164951],[172.68666274024648,-43.589184748517077],[172.68681802504162,-43.588980689697266],[172.6869784935063,-43.588851829531848],[172.68714723625112,-43.588775576036923],[172.68742217593311,-43.588716360420335],[172.68764782953491,-43.588701760139301],[172.6879912785073,-43.588761134927665],[172.68889105652852,-43.589036863047966],[172.68936101605385,-43.589138717352554],[172.6898099577254,-43.589208728040418],[172.6899810701338,-43.589249530782837],[172.69020844644459,-43.589334065841982],[172.69063701180818,-43.58953727951981],[172.69067125501516,-43.58959950082707]]]},"properties":{"CommunityBoardID":24,"CommunityBoardNameDescription":"Spreydon-Cashmere-Heathcote"}}]}