{"type":"FeatureCollection","features":[{"type":"Feature","properties":{"name":"Sydenham"},"geometry":{"type":"Polygon","coordinates":[[[172.6277932,-43.5488189],[172.627798,-43.5489442],[172.6280344,-43.5489068],[172.6280504,-43.5489437],[172.6280746,-43.5489641],[172.6281349,-43.548967],[172.6280947,-43.5491158],[172.6280491,-43.5491381],[172.6280276,-43.5491653],[172.6280437,-43.5492839],[172.6281108,-43.5494599],[172.628324,-43.5493345],[172.6285467,-43.5493277],[172.6289047,-43.5496465],[172.6288189,-43.5498973],[172.6290013,-43.5500596],[172.6289034,-43.5501189],[172.6289906,-43.5501879],[172.6289651,-43.5502122],[172.6289611,-43.5502404],[172.6286995,-43.5502948],[172.628434,-43.5504484],[172.6286533,-43.5506433],[172.6281718,-43.5509305],[172.6285011,-43.5512211],[172.6287612,-43.5510714],[172.6290241,-43.551293],[172.6292145,-43.5512094],[172.6293305,-43.5513132],[172.6296376,-43.5511305],[172.6296849,-43.5511749],[172.629697,-43.551198],[172.629703,-43.5512189],[172.6297047,-43.5512337],[172.629694,-43.5512573],[172.6296722,-43.5512826],[172.6296594,-43.5512933],[172.6298163,-43.5514352],[172.6298552,-43.5514187],[172.6298841,-43.5514157],[172.6299193,-43.5514189],[172.6299421,-43.5514225],[172.6299739,-43.5514352],[172.6299957,-43.5514493],[172.6300229,-43.5514743],[172.6295418,-43.5517596],[172.6298676,-43.5520512],[172.6301895,-43.5518577],[172.6304309,-43.5520726],[172.6305342,-43.5520191],[172.6307031,-43.55216],[172.6304242,-43.5523272],[172.6306415,-43.5525391],[172.6305744,-43.5525896],[172.6310518,-43.5530037],[172.6314139,-43.5527937],[172.6316071,-43.5528832],[172.6317492,-43.5530056],[172.6313281,-43.5532467],[172.6315722,-43.5534547],[172.6312852,-43.5536277],[172.6314729,-43.5537774],[172.6316017,-43.5537171],[172.6317009,-43.553791],[172.6320335,-43.5535966],[172.6320952,-43.5536374],[172.6321515,-43.5536082],[172.6323634,-43.5537851],[172.6324519,-43.5537288],[172.6326102,-43.5538512],[172.6326826,-43.553859],[172.6327255,-43.5538843],[172.6327819,-43.5539212],[172.6323152,-43.5542089],[172.6327792,-43.5546074],[172.6332352,-43.5543372],[172.6333424,-43.5544266],[172.6330394,-43.5546035],[172.6331601,-43.5547007],[172.6334685,-43.5545432],[172.6336053,-43.5546676],[172.6334175,-43.5547998],[172.6337287,-43.5550758],[172.6335409,-43.5551769],[172.6338682,-43.5554588],[172.634182,-43.5552741],[172.634367,-43.5554141],[172.6344207,-43.5554141],[172.6344797,-43.5554355],[172.6346111,-43.555554],[172.6342571,-43.5557581],[172.6343644,-43.5558417],[172.6341417,-43.5559739],[172.634418,-43.5562033],[172.634595,-43.5561274],[172.6348552,-43.5563549],[172.6346996,-43.5564618],[172.6348069,-43.5565551],[172.6347828,-43.5565784],[172.6349062,-43.556695],[172.6349518,-43.5566795],[172.6352173,-43.5569225],[172.6350966,-43.5570099],[172.6352307,-43.5571207],[172.635904,-43.5567281],[172.636317,-43.557076],[172.6363867,-43.5572918],[172.6366228,-43.5572879],[172.6367488,-43.5574065],[172.6367488,-43.5574648],[172.6365691,-43.557455],[172.6365101,-43.5574842],[172.6365048,-43.5576271],[172.6363009,-43.5576271],[172.6363063,-43.5576679],[172.6361789,-43.5576669],[172.6361762,-43.5579507],[172.6358423,-43.5579526],[172.6356156,-43.5577573],[172.6355606,-43.5577903],[172.635735,-43.5579575],[172.6357564,-43.5592958],[172.6364431,-43.5592841],[172.6364458,-43.5595115],[172.6366979,-43.5595134],[172.6367542,-43.5596962],[172.6364002,-43.5596962],[172.6363787,-43.559976],[172.6367634,-43.5599664],[172.6367623,-43.5598419],[172.6370037,-43.5598283],[172.6370305,-43.5598672],[172.6370519,-43.5598808],[172.6371217,-43.5598886],[172.6375052,-43.5598711],[172.6375133,-43.5594376],[172.6377493,-43.5594376],[172.6377547,-43.5598769],[172.638503,-43.5598711],[172.6385057,-43.5593716],[172.6390073,-43.5593677],[172.6390153,-43.5598614],[172.6394016,-43.5598672],[172.639474,-43.5598711],[172.6395142,-43.5598458],[172.6395276,-43.5598147],[172.6397556,-43.5598205],[172.6397744,-43.5598536],[172.6398173,-43.5598653],[172.6400694,-43.5598672],[172.6400587,-43.5596553],[172.6401311,-43.5596437],[172.6401177,-43.5595018],[172.6403859,-43.559496],[172.6403859,-43.5594046],[172.6416144,-43.5594007],[172.6416224,-43.5589517],[172.64236,-43.5589459],[172.6423734,-43.5593929],[172.6426148,-43.5593988],[172.6426282,-43.5589459],[172.6428616,-43.5589459],[172.642867,-43.5594862],[172.64328,-43.5594862],[172.643508,-43.5594867],[172.64351,-43.5596586],[172.6437296,-43.5596596],[172.6440445,-43.5596612],[172.6446748,-43.5596534],[172.6446721,-43.5594746],[172.6449913,-43.5594707],[172.6449859,-43.5589362],[172.6462305,-43.5589206],[172.6462251,-43.5591888],[172.6464879,-43.5592083],[172.6464719,-43.5593716],[172.6467186,-43.5593754],[172.6467133,-43.5595931],[172.6469654,-43.5595931],[172.6469654,-43.5598264],[172.6474482,-43.5598264],[172.6475139,-43.5598205],[172.6475447,-43.5597992],[172.6475528,-43.5597797],[172.6475488,-43.5597622],[172.6477248,-43.5597631],[172.6474342,-43.557443],[172.6474026,-43.5571798],[172.6474144,-43.5570102],[172.647527,-43.5568133],[172.6477538,-43.5563722],[172.6479816,-43.5559293],[172.6482108,-43.5554287],[172.6483989,-43.5550179],[172.6489068,-43.5546186],[172.6495466,-43.5541155],[172.6511013,-43.5531722],[172.6509538,-43.5530212],[172.650927,-43.5530076],[172.6509069,-43.552994],[172.6509002,-43.5529755],[172.6509069,-43.5529522],[172.6507285,-43.5529104],[172.6506467,-43.5530639],[172.6503423,-43.5531903],[172.6500875,-43.5531922],[172.6499534,-43.5531747],[172.6498421,-43.5531155],[172.6486686,-43.5523126],[172.6484942,-43.5520978],[172.6486069,-43.5519015],[172.6484299,-43.5518412],[172.6482555,-43.5517149],[172.6483521,-43.5516391],[172.6482555,-43.5515341],[172.6483277,-43.5513941],[172.6480954,-43.5513124],[172.6480152,-43.5512714],[172.6478474,-43.5512189],[172.6475183,-43.5511525],[172.6476547,-43.5508459],[172.6476574,-43.5501733],[172.6476145,-43.5501684],[172.6476131,-43.5500197],[172.6476547,-43.5500129],[172.6476587,-43.5497301],[172.6474549,-43.5497262],[172.6474549,-43.5495512],[172.6469072,-43.5495507],[172.6469041,-43.5493886],[172.6469038,-43.5493744],[172.6469386,-43.5486298],[172.6469439,-43.5485753],[172.6469627,-43.5485539],[172.6470324,-43.5485364],[172.6470405,-43.5483576],[172.6470003,-43.5483343],[172.6469842,-43.5483032],[172.647019,-43.5479027],[172.6470324,-43.5476558],[172.6470512,-43.5476208],[172.6470914,-43.5475897],[172.6471075,-43.5473097],[172.6475125,-43.5473117],[172.6474965,-43.5455503],[172.6471961,-43.5455503],[172.6471961,-43.5451984],[172.6470914,-43.5451615],[172.6470861,-43.5449029],[172.6472202,-43.5449476],[172.6473463,-43.5446813],[172.6475179,-43.5446949],[172.6475233,-43.5446366],[172.6477244,-43.544658],[172.6478264,-43.5444558],[172.6473704,-43.5444538],[172.6473704,-43.5440436],[172.6471129,-43.5439658],[172.6469278,-43.5436723],[172.6469225,-43.543334],[172.6469386,-43.5431162],[172.6469171,-43.5427585],[172.6469064,-43.5424668],[172.6468688,-43.5423074],[172.6468635,-43.5417202],[172.6467964,-43.5416746],[172.6468058,-43.5414218],[172.6470365,-43.5414986],[172.6466408,-43.5413022],[172.6466368,-43.5400968],[172.6464906,-43.5400968],[172.6463149,-43.5400025],[172.6459998,-43.5398362],[172.6458295,-43.539741],[172.6427329,-43.5397526],[172.6411825,-43.5397371],[172.641145,-43.5393949],[172.6402974,-43.5393793],[172.6403081,-43.5397371],[172.6395035,-43.5397215],[172.6394391,-43.5393793],[172.639085,-43.5393793],[172.6390099,-43.538726],[172.6376903,-43.5387416],[172.6376675,-43.539389],[172.63706,-43.5393929],[172.6370171,-43.5394551],[172.6370245,-43.5397465],[172.6365276,-43.5397429],[172.6365182,-43.5396321],[172.6361601,-43.5396311],[172.6361614,-43.5397604],[172.6360193,-43.5397585],[172.6360166,-43.5394065],[172.6358798,-43.539389],[172.6358691,-43.5390916],[172.6356304,-43.5390896],[172.6356223,-43.5393657],[172.6355231,-43.5393851],[172.6342544,-43.5393774],[172.6342463,-43.5395115],[172.634131,-43.5395096],[172.6341256,-43.5395874],[172.6337475,-43.5395951],[172.6337448,-43.5397565],[172.633498,-43.5397565],[172.6334926,-43.5396301],[172.633211,-43.539634],[172.6332003,-43.5394143],[172.6330098,-43.5394221],[172.6328999,-43.5393929],[172.6328945,-43.5390254],[172.632114,-43.539041],[172.6321274,-43.5397604],[172.6319021,-43.5397682],[172.6319236,-43.539391],[172.6309848,-43.539391],[172.6309472,-43.5395465],[172.6307327,-43.5395232],[172.6307112,-43.5397254],[172.6302069,-43.5397682],[172.6301855,-43.539426],[172.6291555,-43.539426],[172.6291501,-43.5397448],[172.6286781,-43.5397837],[172.6286352,-43.5395815],[172.6280397,-43.5395815],[172.6280465,-43.539764],[172.6280799,-43.5401269],[172.6280424,-43.5401629],[172.6280116,-43.5409565],[172.628088,-43.5412468],[172.6280451,-43.5412799],[172.6280464,-43.541327],[172.6280927,-43.5412959],[172.6283555,-43.5412964],[172.6283582,-43.541485],[172.6286063,-43.5414894],[172.6286057,-43.5419395],[172.6290422,-43.5419361],[172.6290482,-43.5422588],[172.6288444,-43.5422248],[172.628721,-43.5422102],[172.6285453,-43.5421917],[172.6283723,-43.5421888],[172.6280934,-43.5421937],[172.6280987,-43.5423725],[172.6284367,-43.5423716],[172.6284367,-43.5425728],[172.6288082,-43.5425709],[172.6288041,-43.5424037],[172.6288806,-43.5424143],[172.6288841,-43.5427562],[172.6292216,-43.542755],[172.6292225,-43.5428011],[172.6292241,-43.542909],[172.6292463,-43.5429089],[172.6292413,-43.5431668],[172.6298422,-43.543159],[172.6298411,-43.5432612],[172.6298422,-43.5434681],[172.6296651,-43.5434778],[172.6296517,-43.5436509],[172.6292387,-43.5436567],[172.6292467,-43.5438336],[172.6296544,-43.5438297],[172.6296598,-43.5442886],[172.6292521,-43.5442925],[172.629244,-43.5444655],[172.6296678,-43.5444694],[172.6296571,-43.5446463],[172.6286459,-43.5446541],[172.6286539,-43.545006],[172.6283321,-43.545006],[172.6283294,-43.5451615],[172.6281229,-43.5451654],[172.6281363,-43.5452995],[172.6284374,-43.5452966],[172.6284407,-43.5455022],[172.6286499,-43.5455046],[172.6286533,-43.5457272],[172.6288428,-43.5457263],[172.6291833,-43.5457275],[172.6292511,-43.5457265],[172.629304,-43.5457264],[172.6293805,-43.545727],[172.6296963,-43.5457267],[172.62977,-43.5457271],[172.6299283,-43.5457276],[172.6299321,-43.5459513],[172.6299372,-43.5461079],[172.6299397,-43.5461816],[172.6299417,-43.5462412],[172.6299637,-43.5468917],[172.6285659,-43.5469028],[172.6285316,-43.5469019],[172.6285299,-43.5472772],[172.6284931,-43.547277],[172.6280773,-43.5472709],[172.6280665,-43.5473486],[172.6280746,-43.5473914],[172.6280907,-43.5474167],[172.6281041,-43.5474303],[172.6281658,-43.54744],[172.6281524,-43.5477336],[172.6281282,-43.5477491],[172.6280934,-43.5477627],[172.6280719,-43.5477958],[172.6278412,-43.5478269],[172.6277932,-43.5488189]]]}}]}